CCSDS_OMM_VERS = 2.0
CREATION_DATE  = 
ORIGINATOR     = 

OBJECT_NAME    = KUIPER-00144
OBJECT_ID      = 2025-301A
CENTER_NAME    = EARTH
REF_FRAME      = TEME
TIME_SYSTEM    = UTC
MEAN_ELEMENT_THEORY = SGP/SGP4

EPOCH          = 2026-01-03T07:31:35.502240
MEAN_MOTION    = 15.35807048
ECCENTRICITY   = .00062906
INCLINATION    = 51.8711
RA_OF_ASC_NODE = 21.0938
ARG_OF_PERICENTER = 142.5397
MEAN_ANOMALY   = 217.6028

EPHEMERIS_TYPE = 0
CLASSIFICATION_TYPE = U
NORAD_CAT_ID   = 67133
ELEMENT_SET_NO = 999
REV_AT_EPOCH   = 368
BSTAR          = .13862803E-2
MEAN_MOTION_DOT = .48998E-3
MEAN_MOTION_DDOT = 0

CCSDS_OMM_VERS = 2.0
CREATION_DATE  = 
ORIGINATOR     = 

OBJECT_NAME    = KUIPER-00164
OBJECT_ID      = 2025-301B
CENTER_NAME    = EARTH
REF_FRAME      = TEME
TIME_SYSTEM    = UTC
MEAN_ELEMENT_THEORY = SGP/SGP4

EPOCH          = 2026-01-03T07:19:51.216960
MEAN_MOTION    = 15.36441668
ECCENTRICITY   = .00030275
INCLINATION    = 51.8731
RA_OF_ASC_NODE = 21.0412
ARG_OF_PERICENTER = 123.7325
MEAN_ANOMALY   = 236.3951

EPHEMERIS_TYPE = 0
CLASSIFICATION_TYPE = U
NORAD_CAT_ID   = 67134
ELEMENT_SET_NO = 999
REV_AT_EPOCH   = 386
BSTAR          = .13278555E-2
MEAN_MOTION_DOT = .47861E-3
MEAN_MOTION_DDOT = 0

CCSDS_OMM_VERS = 2.0
CREATION_DATE  = 
ORIGINATOR     = 

OBJECT_NAME    = KUIPER-00175
OBJECT_ID      = 2025-301C
CENTER_NAME    = EARTH
REF_FRAME      = TEME
TIME_SYSTEM    = UTC
MEAN_ELEMENT_THEORY = SGP/SGP4

EPOCH          = 2026-01-03T07:11:38.235840
MEAN_MOTION    = 15.36969218
ECCENTRICITY   = .00027321
INCLINATION    = 51.8746
RA_OF_ASC_NODE = 20.9988
ARG_OF_PERICENTER = 74.0190
MEAN_ANOMALY   = 286.1098

EPHEMERIS_TYPE = 0
CLASSIFICATION_TYPE = U
NORAD_CAT_ID   = 67135
ELEMENT_SET_NO = 999
REV_AT_EPOCH   = 375
BSTAR          = .144009E-2
MEAN_MOTION_DOT = .52868E-3
MEAN_MOTION_DDOT = 0

CCSDS_OMM_VERS = 2.0
CREATION_DATE  = 
ORIGINATOR     = 

OBJECT_NAME    = KUIPER-00179
OBJECT_ID      = 2025-301D
CENTER_NAME    = EARTH
REF_FRAME      = TEME
TIME_SYSTEM    = UTC
MEAN_ELEMENT_THEORY = SGP/SGP4

EPOCH          = 2026-01-03T07:17:21.048576
MEAN_MOTION    = 15.36541535
ECCENTRICITY   = .00032956
INCLINATION    = 51.8743
RA_OF_ASC_NODE = 21.0272
ARG_OF_PERICENTER = 102.6709
MEAN_ANOMALY   = 257.4646

EPHEMERIS_TYPE = 0
CLASSIFICATION_TYPE = U
NORAD_CAT_ID   = 67136
ELEMENT_SET_NO = 999
REV_AT_EPOCH   = 386
BSTAR          = .13132681E-2
MEAN_MOTION_DOT = .47482E-3
MEAN_MOTION_DDOT = 0

CCSDS_OMM_VERS = 2.0
CREATION_DATE  = 
ORIGINATOR     = 

OBJECT_NAME    = KUIPER-00181
OBJECT_ID      = 2025-301E
CENTER_NAME    = EARTH
REF_FRAME      = TEME
TIME_SYSTEM    = UTC
MEAN_ELEMENT_THEORY = SGP/SGP4

EPOCH          = 2026-01-03T06:15:32.628384
MEAN_MOTION    = 15.34730141
ECCENTRICITY   = .00104253
INCLINATION    = 51.8641
RA_OF_ASC_NODE = 21.4815
ARG_OF_PERICENTER = 169.5157
MEAN_ANOMALY   = 190.6048

EPHEMERIS_TYPE = 0
CLASSIFICATION_TYPE = U
NORAD_CAT_ID   = 67137
ELEMENT_SET_NO = 999
REV_AT_EPOCH   = 383
BSTAR          = .87764783E-3
MEAN_MOTION_DOT = .29779E-3
MEAN_MOTION_DDOT = 0

CCSDS_OMM_VERS = 2.0
CREATION_DATE  = 
ORIGINATOR     = 

OBJECT_NAME    = KUIPER-00183
OBJECT_ID      = 2025-301F
CENTER_NAME    = EARTH
REF_FRAME      = TEME
TIME_SYSTEM    = UTC
MEAN_ELEMENT_THEORY = SGP/SGP4

EPOCH          = 2026-01-03T06:20:45.120768
MEAN_MOTION    = 15.34482669
ECCENTRICITY   = .00110729
INCLINATION    = 51.8615
RA_OF_ASC_NODE = 21.5016
ARG_OF_PERICENTER = 171.2276
MEAN_ANOMALY   = 188.8905

EPHEMERIS_TYPE = 0
CLASSIFICATION_TYPE = U
NORAD_CAT_ID   = 67138
ELEMENT_SET_NO = 999
REV_AT_EPOCH   = 384
BSTAR          = .4526617E-3
MEAN_MOTION_DOT = .15025E-3
MEAN_MOTION_DDOT = 0

CCSDS_OMM_VERS = 2.0
CREATION_DATE  = 
ORIGINATOR     = 

OBJECT_NAME    = KUIPER-00184
OBJECT_ID      = 2025-301G
CENTER_NAME    = EARTH
REF_FRAME      = TEME
TIME_SYSTEM    = UTC
MEAN_ELEMENT_THEORY = SGP/SGP4

EPOCH          = 2026-01-03T06:14:15.303840
MEAN_MOTION    = 15.34817283
ECCENTRICITY   = .00092136
INCLINATION    = 51.8629
RA_OF_ASC_NODE = 21.4745
ARG_OF_PERICENTER = 167.4669
MEAN_ANOMALY   = 192.6547

EPHEMERIS_TYPE = 0
CLASSIFICATION_TYPE = U
NORAD_CAT_ID   = 67139
ELEMENT_SET_NO = 999
REV_AT_EPOCH   = 395
BSTAR          = .10435134E-2
MEAN_MOTION_DOT = .35594E-3
MEAN_MOTION_DDOT = 0

CCSDS_OMM_VERS = 2.0
CREATION_DATE  = 
ORIGINATOR     = 

OBJECT_NAME    = KUIPER-00186
OBJECT_ID      = 2025-301H
CENTER_NAME    = EARTH
REF_FRAME      = TEME
TIME_SYSTEM    = UTC
MEAN_ELEMENT_THEORY = SGP/SGP4

EPOCH          = 2026-01-03T06:04:30.382752
MEAN_MOTION    = 15.35464524
ECCENTRICITY   = .00077746
INCLINATION    = 51.8687
RA_OF_ASC_NODE = 21.4356
ARG_OF_PERICENTER = 154.7557
MEAN_ANOMALY   = 205.3810

EPHEMERIS_TYPE = 0
CLASSIFICATION_TYPE = U
NORAD_CAT_ID   = 67140
ELEMENT_SET_NO = 999
REV_AT_EPOCH   = 367
BSTAR          = .88555633E-3
MEAN_MOTION_DOT = .30752E-3
MEAN_MOTION_DDOT = 0

CCSDS_OMM_VERS = 2.0
CREATION_DATE  = 
ORIGINATOR     = 

OBJECT_NAME    = KUIPER-00187
OBJECT_ID      = 2025-301J
CENTER_NAME    = EARTH
REF_FRAME      = TEME
TIME_SYSTEM    = UTC
MEAN_ELEMENT_THEORY = SGP/SGP4

EPOCH          = 2026-01-03T07:24:58.887360
MEAN_MOTION    = 15.36157881
ECCENTRICITY   = .00048738
INCLINATION    = 51.8717
RA_OF_ASC_NODE = 21.0645
ARG_OF_PERICENTER = 139.4907
MEAN_ANOMALY   = 220.6442

EPHEMERIS_TYPE = 0
CLASSIFICATION_TYPE = U
NORAD_CAT_ID   = 67141
ELEMENT_SET_NO = 999
REV_AT_EPOCH   = 368
BSTAR          = .17574004E-2
MEAN_MOTION_DOT = .63028E-3
MEAN_MOTION_DDOT = 0

CCSDS_OMM_VERS = 2.0
CREATION_DATE  = 
ORIGINATOR     = 

OBJECT_NAME    = KUIPER-00188
OBJECT_ID      = 2025-301K
CENTER_NAME    = EARTH
REF_FRAME      = TEME
TIME_SYSTEM    = UTC
MEAN_ELEMENT_THEORY = SGP/SGP4

EPOCH          = 2026-01-03T06:06:03.134880
MEAN_MOTION    = 15.35381417
ECCENTRICITY   = .00076819
INCLINATION    = 51.8699
RA_OF_ASC_NODE = 21.4433
ARG_OF_PERICENTER = 159.9263
MEAN_ANOMALY   = 200.2026

EPHEMERIS_TYPE = 0
CLASSIFICATION_TYPE = U
NORAD_CAT_ID   = 67142
ELEMENT_SET_NO = 999
REV_AT_EPOCH   = 367
BSTAR          = .92677501E-3
MEAN_MOTION_DOT = .3212E-3
MEAN_MOTION_DDOT = 0

CCSDS_OMM_VERS = 2.0
CREATION_DATE  = 
ORIGINATOR     = 

OBJECT_NAME    = KUIPER-00191
OBJECT_ID      = 2025-301L
CENTER_NAME    = EARTH
REF_FRAME      = TEME
TIME_SYSTEM    = UTC
MEAN_ELEMENT_THEORY = SGP/SGP4

EPOCH          = 2026-01-03T06:02:35.174400
MEAN_MOTION    = 15.35520211
ECCENTRICITY   = .0006605
INCLINATION    = 51.8679
RA_OF_ASC_NODE = 21.4269
ARG_OF_PERICENTER = 154.1182
MEAN_ANOMALY   = 206.0136

EPHEMERIS_TYPE = 0
CLASSIFICATION_TYPE = U
NORAD_CAT_ID   = 67143
ELEMENT_SET_NO = 999
REV_AT_EPOCH   = 370
BSTAR          = .83875124E-3
MEAN_MOTION_DOT = .29145E-3
MEAN_MOTION_DDOT = 0

CCSDS_OMM_VERS = 2.0
CREATION_DATE  = 
ORIGINATOR     = 

OBJECT_NAME    = KUIPER-00196
OBJECT_ID      = 2025-301M
CENTER_NAME    = EARTH
REF_FRAME      = TEME
TIME_SYSTEM    = UTC
MEAN_ELEMENT_THEORY = SGP/SGP4

EPOCH          = 2026-01-03T07:21:51.895296
MEAN_MOTION    = 15.36333443
ECCENTRICITY   = .00038921
INCLINATION    = 51.8736
RA_OF_ASC_NODE = 21.0492
ARG_OF_PERICENTER = 116.8006
MEAN_ANOMALY   = 243.3379

EPHEMERIS_TYPE = 0
CLASSIFICATION_TYPE = U
NORAD_CAT_ID   = 67144
ELEMENT_SET_NO = 999
REV_AT_EPOCH   = 368
BSTAR          = .15118413E-2
MEAN_MOTION_DOT = .54407E-3
MEAN_MOTION_DDOT = 0

