KUIPER-00144            
1 67133U 25301A   26003.31360535  .00048998  00000+0  13863-2 0  9998
2 67133  51.8711  21.0938 0006290 142.5397 217.6028 15.35807048  3680
KUIPER-00164            
1 67134U 25301B   26003.30545390  .00047861  00000+0  13279-2 0  9991
2 67134  51.8731  21.0412 0003027 123.7325 236.3951 15.36441668  3863
KUIPER-00175            
1 67135U 25301C   26003.29974810  .00052868  00000+0  14401-2 0  9994
2 67135  51.8746  20.9988 0002732  74.0190 286.1098 15.36969218  3755
KUIPER-00179            
1 67136U 25301D   26003.30371584  .00047482  00000+0  13133-2 0  9993
2 67136  51.8743  21.0272 0003295 102.6709 257.4646 15.36541535  3860
KUIPER-00181            
1 67137U 25301E   26003.26079431  .00029779  00000+0  87765-3 0  9997
2 67137  51.8641  21.4815 0010425 169.5157 190.6048 15.34730141  3839
KUIPER-00183            
1 67138U 25301F   26003.26441112  .00015025  00000+0  45266-3 0  9996
2 67138  51.8615  21.5016 0011072 171.2276 188.8905 15.34482669  3847
KUIPER-00184            
1 67139U 25301G   26003.25989935  .00035594  00000+0  10435-2 0  9998
2 67139  51.8629  21.4745 0009213 167.4669 192.6547 15.34817283  3959
KUIPER-00186            
1 67140U 25301H   26003.25312943  .00030752  00000+0  88556-3 0  9990
2 67140  51.8687  21.4356 0007774 154.7557 205.3810 15.35464524  3679
KUIPER-00187            
1 67141U 25301J   26003.30901490  .00063028  00000+0  17574-2 0  9991
2 67141  51.8717  21.0645 0004873 139.4907 220.6442 15.36157881  3685
KUIPER-00188            
1 67142U 25301K   26003.25420295  .00032120  00000+0  92678-3 0  9993
2 67142  51.8699  21.4433 0007681 159.9263 200.2026 15.35381417  3670
KUIPER-00191            
1 67143U 25301L   26003.25179600  .00029145  00000+0  83875-3 0  9997
2 67143  51.8679  21.4269 0006605 154.1182 206.0136 15.35520211  3705
KUIPER-00196            
1 67144U 25301M   26003.30685064  .00054407  00000+0  15118-2 0  9993
2 67144  51.8736  21.0492 0003892 116.8006 243.3379 15.36333443  3689
